[{"OBJECT_NAME":"TIANQI-14","OBJECT_ID":"2021-055E","EPOCH":"2026-03-09T21:13:53.334048","MEAN_MOTION":15.12385268,"ECCENTRICITY":0.00041067,"INCLINATION":35.0005,"RA_OF_ASC_NODE":333.4675,"ARG_OF_PERICENTER":169.8812,"MEAN_ANOMALY":190.1982,"EPHEMERIS_TYPE":0,"CLASSIFICATION_TYPE":"U","NORAD_CAT_ID":48864,"ELEMENT_SET_NO":999,"REV_AT_EPOCH":25867,"BSTAR":0.00046306259,"MEAN_MOTION_DOT":8.192e-5,"MEAN_MOTION_DDOT":0},{"OBJECT_NAME":"CZ-6A DEB","OBJECT_ID":"2022-151DV","EPOCH":"2026-03-09T19:16:59.107296","MEAN_MOTION":15.22406517,"ECCENTRICITY":0.00445255,"INCLINATION":98.4509,"RA_OF_ASC_NODE":160.1888,"ARG_OF_PERICENTER":355.6495,"MEAN_ANOMALY":4.4345,"EPHEMERIS_TYPE":0,"CLASSIFICATION_TYPE":"U","NORAD_CAT_ID":54397,"ELEMENT_SET_NO":999,"REV_AT_EPOCH":17880,"BSTAR":0.0035436228,"MEAN_MOTION_DOT":0.00084931,"MEAN_MOTION_DDOT":0}]
